[{"OBJECT_NAME":"STARLINK-5685","OBJECT_ID":"2023-015AE","EPOCH":"2026-03-09T01:30:50.613120","MEAN_MOTION":15.02535586,"ECCENTRICITY":0.00012798,"INCLINATION":43.0051,"RA_OF_ASC_NODE":316.9093,"ARG_OF_PERICENTER":266.03,"MEAN_ANOMALY":94.0396,"EPHEMERIS_TYPE":0,"CLASSIFICATION_TYPE":"U","NORAD_CAT_ID":55477,"ELEMENT_SET_NO":999,"REV_AT_EPOCH":17080,"BSTAR":1.9378457e-5,"MEAN_MOTION_DOT":5.8e-7,"MEAN_MOTION_DDOT":0},{"OBJECT_NAME":"COSMOS 434 DEB","OBJECT_ID":"1971-069C","EPOCH":"2026-03-09T06:41:44.243520","MEAN_MOTION":14.88540959,"ECCENTRICITY":0.00573215,"INCLINATION":49.5268,"RA_OF_ASC_NODE":92.2564,"ARG_OF_PERICENTER":343.1408,"MEAN_ANOMALY":16.762,"EPHEMERIS_TYPE":0,"CLASSIFICATION_TYPE":"U","NORAD_CAT_ID":5426,"ELEMENT_SET_NO":999,"REV_AT_EPOCH":87280,"BSTAR":0.00069493899,"MEAN_MOTION_DOT":6.493e-5,"MEAN_MOTION_DDOT":0}]
